[{"OBJECT_NAME":"GAOFEN-9 05","OBJECT_ID":"2020-058A","EPOCH":"2026-03-10T00:01:50.876256","MEAN_MOTION":15.30293976,"ECCENTRICITY":0.0010522,"INCLINATION":97.2228,"RA_OF_ASC_NODE":111.963,"ARG_OF_PERICENTER":91.0204,"MEAN_ANOMALY":269.2242,"EPHEMERIS_TYPE":0,"CLASSIFICATION_TYPE":"U","NORAD_CAT_ID":46232,"ELEMENT_SET_NO":999,"REV_AT_EPOCH":30843,"BSTAR":0.00025120304,"MEAN_MOTION_DOT":7.299e-5,"MEAN_MOTION_DDOT":0},{"OBJECT_NAME":"STARLINK-35908","OBJECT_ID":"2025-271Y","EPOCH":"2026-03-09T09:58:13.152000","MEAN_MOTION":15.30194279,"ECCENTRICITY":0.00021252,"INCLINATION":53.1576,"RA_OF_ASC_NODE":141.2786,"ARG_OF_PERICENTER":151.2114,"MEAN_ANOMALY":208.9004,"EPHEMERIS_TYPE":0,"CLASSIFICATION_TYPE":"U","NORAD_CAT_ID":66639,"ELEMENT_SET_NO":999,"REV_AT_EPOCH":1752,"BSTAR":0.0011414468,"MEAN_MOTION_DOT":0.00033595,"MEAN_MOTION_DDOT":0}]
